0 FENGYUN 1C DEB
1 32440U 99025DBC 13272.63361465  .00002104  00000-0  25089-2 0  1712
2 32440 099.1623 059.3804 0381246 201.8172 156.7849 13.41416607304481
0 FENGYUN 1C DEB
1 32440U 99025DBC 13282.18089945  .00002246  00000-0  26723-2 0  1727
2 32440 099.1623 068.0570 0381144 178.0096 182.3911 13.41462373305763
